AO-123
1 61781U 24199AY  26185.62658927  .00013986  00000-0  40089-3 0  9996
2 61781  97.2973  54.1406 0012090 242.0119 117.9902 15.35938377136609
JINJUSat 1B
1 63210U 25052A   26185.43489181  .00025584  00000-0  77657-3 0  9995
2 63210  97.3979  82.2172 0004449  54.7657 305.4002 15.34068390 72748
NUSHSAT 1
1 63211U 25052B   26185.45014369  .00034222  00000-0  95421-3 0  9998
2 63211  97.3953  82.8591 0004251  61.6283 298.5389 15.36680890 72797
TEVEL2-4
1 63213U 25052D   26185.19759899  .00026442  00000-0  77344-3 0  9994
2 63213  97.3880  81.6219 0004460  72.1659 288.0071 15.35231929 72727
TEVEL2-5
1 63214U 25052E   26184.95930621  .00022739  00000-0  66991-3 0  9993
2 63214  97.3878  81.3261 0004471  74.0605 286.1131 15.35036262 72687
TEVEL2-6
1 63215U 25052F   26185.16758483  .00025044  00000-0  73794-3 0  9993
2 63215  97.3882  81.5194 0004299  74.6482 285.5237 15.35012398 72715
TEVEL2-1
1 63217U 25052H   26183.44186485  .00021382  00000-0  64322-3 0  9999
2 63217  97.3860  79.3967 0004940  84.7539 275.4267 15.34387675 72436
TEVEL2-3
1 63218U 25052J   26185.45746719  .00027649  00000-0  82662-3 0  9994
2 63218  97.3857  81.4374 0004657  82.5997 277.5775 15.34532305 72741
TEVEL2-2
1 63219U 25052K   26185.46367873  .00028496  00000-0  85302-3 0  9991
2 63219  97.3851  81.4223 0004848  81.4850 278.6942 15.34484342 72742
TEVEL2-9
1 63237U 25052AD  26184.61479293  .00019142  00000-0  61259-3 0  9990
2 63237  97.3920  79.9121 0008273  87.9946 272.2243 15.32416047 72548
TEVEL2-7
1 63238U 25052AE  26185.44265560  .00025666  00000-0  82679-3 0  9990
2 63238  97.3918  80.6472 0008342  86.1482 274.0714 15.32144794 72660
TEVEL2-8
1 63239U 25052AF  26185.45107515  .00025737  00000-0  82944-3 0  9991
2 63239  97.3916  80.6319 0008404  86.5225 273.6978 15.32129933 72662
SPIRONE
1 66657U 25274H   26185.53957547  .00003854  00000-0  36993-3 0  9990
2 66657  97.7473 114.5829 0010959 323.1012  36.9453 14.93622000 32816
K-HERO
1 66660U 25274L   26185.53935110  .00003524  00000-0  33512-3 0  9994
2 66660  97.7480 114.7566 0012938 326.6997  33.3408 14.94032809 32822
SNUGLITE-III DURI
1 66661U 25274M   26185.52669852  .00002303  00000-0  22069-3 0  9990
2 66661  97.7480 114.7651 0013653 327.7471  32.2913 14.94066245 32822
SAKHACUBE-CHOLBON
1 67290U 25313AU  26185.48246190  .00014452  00000-0  57740-3 0  9996
2 67290  97.3928 260.3041 0007626 296.5997  63.4459 15.25207935 28615
RS95S (QMR-KWT-2)
1 67291U 25313AV  26185.45409256  .00020896  00000-0  79525-3 0  9992
2 67291  97.3921 260.4888 0007211 292.5247  67.5228 15.26752453 28624
Ten-Koh2
1 68261U 25241B   26185.52427644  .00009867  00000-0  41371-3 0  9992
2 68261  51.6639 237.1123 0004886 194.5659 165.5179 15.24096777 17559
JACK-002
1 68417U 26067B   26185.61258532  .00011669  00000-0  55051-3 0  9993
2 68417  97.4578 143.9905 0002010 152.4373 207.6969 15.19619943 14593
DISCO 2
1 68431U 26067R   26184.84681717  .00009614  00000-0  45809-3 0  9995
2 68431  97.4611 143.2227 0000829  14.1906 345.9352 15.19329354 14472
HADES-SA (SpinnyONE)
1 68446U 26067AG  26185.60875868  .00037493  00000-0  17500-2 0  9990
2 68446  97.4415 143.6508 0007623  36.6177 323.5578 15.19706873 14572
PARUS-6U1
1 68456U 26067AS  26185.59535530  .00009458  00000-0  47189-3 0  9995
2 68456  97.4564 143.6933 0006015  24.1540 335.9975 15.17713344 14577
SAL-E
1 68458U 26067AU  26184.79666346  .00008985  00000-0  44473-3 0  9995
2 68458  97.4490 142.8334 0006668  35.2442 324.9232 15.18003561 14456
FSI-SAT 2
1 68792U 26088A   26185.35137774  .00005793  00000-0  39016-3 0  9991
2 68792  97.5096 334.1823 0015424  53.0400 307.2238 15.06979284 10874
OrigamiSat 2
1 68795U 26088D   26185.40389456  .00017704  00000-0  11148-2 0  9996
2 68795  97.5099 334.4229 0015115  25.1079 335.0881 15.09138666 10891
ARICA 2
1 68796U 26088E   26185.34172830  .00005514  00000-0  35586-3 0  9995
2 68796  97.5091 334.3387 0016100  25.5036 334.6984 15.08569999 10884
WASEDA-SAT-ZERO-II
1 68797U 26088F   26185.40102242  .00007714  00000-0  49250-3 0  9990
2 68797  97.5088 334.4112 0015825  25.0479 335.1514 15.08841558 10897
MANGARO-II-Piscus
1 68798U 26088G   26185.65548646  .00005738  00000-0  36614-3 0  9994
2 68798  97.5093 334.6942 0019481  25.8992 334.3208 15.08915702 10936
IO-86
1 40931U          25360.30710720  .00000000  00000-0  12800-3 0    00
2 40931   6.0006 332.5373 0012733 338.8432   8.1437 14.79075515    01
LILIUM-4
1 71922C 26067AC  26089.50133053 -.00014632  00000 0 -74472-3 0    04
2 71922  97.4497  49.1617 0004341   5.9603 355.7042 15.16896692    16
